NORAD_CAT_ID,OBJECT_NAME,OBJECT_TYPE,EPOCH,MEAN_MOTION,ECCENTRICITY,INCLINATION,RA_OF_ASC_NODE,ARG_OF_PERICENTER,MEAN_ANOMALY,BSTAR,MEAN_MOTION_DOT,MEAN_MOTION_DDOT,TLE_LINE0,TLE_LINE1,TLE_LINE2,SEMIMAJOR_AXIS,PERIOD,APOGEE,PERIGEE,DECAYED
55312.0,STARLINK-5296,PAYLOAD,2023-12-26 00:42:48,14.98329128,0.0001468,69.9991,233.1054,249.786,110.3141,-4.7889e-05,-6.64e-06,0.0,0 STARLINK-5296,1 55312U 23010AV  23360.02972284 -.00000664  00000-0 -47889-4 0  9998,2 55312  69.9991 233.1054 0001468 249.7860 110.3141 14.98329128 54113,6950.196,96.107,573.081,571.04,0.0
55312.0,STARLINK-5296,PAYLOAD,2023-12-26 19:56:24,14.98318691,0.0003611,69.9988,231.0884,281.3056,78.7697,-0.00021769,-2.689e-05,0.0,0 STARLINK-5296,1 55312U 23010AV  23360.83083687 -.00002689  00000-0 -21769-3 0  9994,2 55312  69.9988 231.0884 0003611 281.3056  78.7697 14.98318691 53045,6950.228,96.108,574.603,569.583,0.0
55312.0,STARLINK-5296,PAYLOAD,2023-12-26 21:32:31,14.98327392,0.0002944,69.9976,230.9171,264.1174,95.965,-0.00013211,-1.669e-05,0.0,0 STARLINK-5296,1 55312U 23010AV  23360.89758847 -.00001669  00000-0 -13211-3 0  9997,2 55312  69.9976 230.9171 0002944 264.1174  95.9650 14.98327392 54248,6950.201,96.107,574.112,570.02,0.0
55312.0,STARLINK-5296,PAYLOAD,2023-12-27 00:44:47,14.98328529,0.0002883,69.998,230.5812,259.6153,100.4681,-0.00014102,-1.775e-05,0.0,0 STARLINK-5296,1 55312U 23010AV  23361.03110746 -.00001775  00000-0 -14102-3 0  9992,2 55312  69.9980 230.5812 0002883 259.6153 100.4681 14.98328529 53078,6950.197,96.107,574.066,570.059,0.0
55312.0,STARLINK-5296,PAYLOAD,2023-12-27 15:10:01,14.98318679,0.0002341,69.9995,229.0664,246.406,113.6854,-0.00010701,-1.369e-05,0.0,0 STARLINK-5296,1 55312U 23010AV  23361.63195613 -.00001369  00000-0 -10701-3 0  9994,2 55312  69.9995 229.0664 0002341 246.4060 113.6854 14.98318679 54357,6950.228,96.108,573.72,570.466,0.0
55312.0,STARLINK-5296,PAYLOAD,2023-12-27 19:58:25,14.98316518,0.0002561,69.9988,228.5609,250.8857,109.2025,-0.00015194,-1.905e-05,0.0,0 STARLINK-5296,1 55312U 23010AV  23361.83223976 -.00001905  00000-0 -15194-3 0  9997,2 55312  69.9988 228.5609 0002561 250.8857 109.2025 14.98316518 53191,6950.235,96.108,573.88,570.32,0.0
55312.0,STARLINK-5296,PAYLOAD,2023-12-27 21:34:33,14.98316079,0.0002532,69.999,228.3929,247.9485,112.1406,-0.00014908,-1.871e-05,0.0,0 STARLINK-5296,1 55312U 23010AV  23361.89900021 -.00001871  00000-0 -14908-3 0  9990,2 55312  69.9990 228.3929 0002532 247.9485 112.1406 14.98316079 54390,6950.236,96.108,573.861,570.341,0.0
55312.0,STARLINK-5296,PAYLOAD,2023-12-28 00:46:49,14.9831567,0.0002699,69.9983,228.0555,260.7651,99.3203,-0.00016806,-2.097e-05,0.0,0 STARLINK-5296,1 55312U 23010AV  23362.03252211 -.00002097  00000-0 -16806-3 0  9998,2 55312  69.9983 228.0555 0002699 260.7651  99.3203 14.98315670 54416,6950.237,96.108,573.978,570.226,0.0
55312.0,STARLINK-5296,PAYLOAD,2023-12-28 20:00:26,14.98308699,0.0003253,69.9983,226.0353,269.3283,90.7503,9.8211e-05,1.078e-05,0.0,0 STARLINK-5296,1 55312U 23010AV  23362.83363672  .00001078  00000-0  98211-4 0  9997,2 55312  69.9983 226.0353 0003253 269.3283  90.7503 14.98308699 53345,6950.259,96.108,574.385,569.863,0.0
55312.0,STARLINK-5296,PAYLOAD,2023-12-29 00:48:50,14.98325233,0.0002992,69.9981,225.5302,261.7495,98.3324,-0.00010736,-1.374e-05,0.0,0 STARLINK-5296,1 55312U 23010AV  23363.03391350 -.00001374  00000-0 -10736-3 0  9990,2 55312  69.9981 225.5302 0002992 261.7495  98.3324 14.98325233 53372,6950.208,96.107,574.152,569.993,0.0
55312.0,STARLINK-5296,PAYLOAD,2023-12-29 21:38:35,14.98321143,0.0003085,69.9984,223.3415,262.6877,97.3932,0.0001705,1.941e-05,0.0,0 STARLINK-5296,1 55312U 23010AV  23363.90179602  .00001941  00000-0  17050-3 0  9994,2 55312  69.9984 223.3415 0003085 262.6877  97.3932 14.98321143 54690,6950.22,96.108,574.229,569.941,0.0
55312.0,STARLINK-5296,PAYLOAD,2023-12-30 00:50:51,14.98324012,0.0003057,69.9986,223.0058,261.1741,98.9072,0.00019808,2.271e-05,0.0,0 STARLINK-5296,1 55312U 23010AV  23364.03531403  .00002271  00000-0  19808-3 0  9990,2 55312  69.9986 223.0058 0003057 261.1741  98.9072 14.98324012 53526,6950.211,96.107,574.201,569.952,0.0
55312.0,STARLINK-5296,PAYLOAD,2023-12-30 21:40:36,14.9832221,0.0002898,69.9993,220.8175,264.224,95.8589,0.00016488,1.874e-05,0.0,0 STARLINK-5296,1 55312U 23010AV  23364.90319875  .00001874  00000-0  16488-3 0  9992,2 55312  69.9993 220.8175 0002898 264.2240  95.8589 14.98322210 54842,6950.217,96.107,574.096,570.068,0.0
55312.0,STARLINK-5296,PAYLOAD,2023-12-31 00:52:52,14.98329009,0.0002927,69.9992,220.4815,261.2081,98.8746,8.691e-05,9.44e-06,0.0,0 STARLINK-5296,1 55312U 23010AV  23365.03671650  .00000944  00000-0  86910-4 0  9994,2 55312  69.9992 220.4815 0002927 261.2081  98.8746 14.98329009 53672,6950.196,96.107,574.095,570.027,0.0
55312.0,STARLINK-5296,PAYLOAD,2023-12-31 21:42:37,14.98331428,0.0002839,69.9995,218.2934,261.2188,98.865,-1.0528e-05,-2.19e-06,0.0,0 STARLINK-5296,1 55312U 23010AV  23365.90459733 -.00000219  00000-0 -10528-4 0  9995,2 55312  69.9995 218.2934 0002839 261.2188  98.8650 14.98331428 54990,6950.188,96.107,574.027,570.08,0.0
55312.0,STARLINK-5296,PAYLOAD,2024-01-01 13:43:57,14.98332369,0.0002829,69.9996,216.6103,255.2422,104.8424,9.7736e-06,2.4e-07,0.0,0 STARLINK-5296,1 55312U 23010AV  24001.57219451  .00000024  00000-0  97736-5 0  9996,2 55312  69.9996 216.6103 0002829 255.2422 104.8424 14.98332369 55098,6950.186,96.107,574.017,570.084,0.0
55312.0,STARLINK-5296,PAYLOAD,2024-01-01 18:32:21,14.98332322,0.0002812,69.9996,216.1053,255.9091,104.1756,1.0636e-05,3.4e-07,0.0,0 STARLINK-5296,1 55312U 23010AV  24001.77247418  .00000034  00000-0  10636-4 0  9996,2 55312  69.9996 216.1053 0002812 255.9091 104.1756 14.98332322 53939,6950.186,96.107,574.005,570.096,0.0
55312.0,STARLINK-5296,PAYLOAD,2024-01-01 21:44:37,14.98333172,0.0002796,69.9996,215.7686,255.6504,104.4344,2.1029e-05,1.58e-06,0.0,0 STARLINK-5296,1 55312U 23010AV  24001.90599309  .00000158  00000-0  21029-4 0  9995,2 55312  69.9996 215.7686 0002796 255.6504 104.4344 14.98333172 55148,6950.183,96.107,573.991,570.105,0.0
55312.0,STARLINK-5296,PAYLOAD,2024-01-02 00:56:54,14.98331237,0.0002789,69.9995,215.4323,259.6691,100.4153,-3.1834e-06,-1.31e-06,0.0,0 STARLINK-5296,1 55312U 23010AV  24002.03951497 -.00000131  00000-0 -31834-5 0  9999,2 55312  69.9995 215.4323 0002789 259.6691 100.4153 14.98331237 55161,6950.189,96.107,573.992,570.116,0.0
55312.0,STARLINK-5296,PAYLOAD,2024-01-02 20:10:30,14.98330276,0.0002807,69.9994,213.4123,260.5478,99.5363,-2.8841e-06,-1.27e-06,0.0,0 STARLINK-5296,1 55312U 23010AV  24002.84063480 -.00000127  00000-0 -28841-5 0  9993,2 55312  69.9994 213.4123 0002807 260.5478  99.5363 14.98330276 54095,6950.192,96.107,574.008,570.106,0.0
55312.0,STARLINK-5296,PAYLOAD,2024-01-02 21:46:38,14.98331032,0.0002791,69.9994,213.244,259.9643,100.1201,6.5959e-06,-1.4e-07,0.0,0 STARLINK-5296,1 55312U 23010AV  24002.90739394 -.00000014  00000-0  65959-5 0  9999,2 55312  69.9994 213.2440 0002791 259.9643 100.1201 14.98331032 55297,6950.19,96.107,573.994,570.115,0.0
55312.0,STARLINK-5296,PAYLOAD,2024-01-03 13:47:59,14.98329003,0.0002741,69.9993,211.561,261.302,98.7828,-3.5744e-05,-5.19e-06,0.0,0 STARLINK-5296,1 55312U 23010AV  24003.57499638 -.00000519  00000-0 -35744-4 0  9996,2 55312  69.9993 211.5610 0002741 261.3020  98.7828 14.98329003 55390,6950.196,96.107,573.966,570.156,0.0
55312.0,STARLINK-5296,PAYLOAD,2024-01-03 20:12:32,14.98327946,0.000279,69.9991,210.8872,261.6774,98.4069,-4.8348e-05,-6.7e-06,0.0,0 STARLINK-5296,1 55312U 23010AV  24003.84203746 -.00000670  00000-0 -48348-4 0  9991,2 55312  69.9991 210.8872 0002790 261.6774  98.4069 14.98327946 54244,6950.199,96.107,574.003,570.125,0.0
55312.0,STARLINK-5296,PAYLOAD,2024-01-03 21:48:40,14.98328613,0.0002781,69.9991,210.7189,261.5686,98.5158,-3.9395e-05,-5.63e-06,0.0,0 STARLINK-5296,1 55312U 23010AV  24003.90879684 -.00000563  00000-0 -39395-4 0  9991,2 55312  69.9991 210.7189 0002781 261.5686  98.5158 14.98328613 55440,6950.197,96.107,573.995,570.129,0.0
55312.0,STARLINK-5296,PAYLOAD,2024-01-04 13:50:00,14.98330475,0.0002845,69.9988,209.0346,266.0568,94.0265,6.3448e-06,-1.7e-07,0.0,0 STARLINK-5296,1 55312U 23010AV  24004.57639465 -.00000017  00000-0  63448-5 0  9996,2 55312  69.9988 209.0346 0002845 266.0568  94.0265 14.98330475 55542,6950.191,96.107,574.034,570.079,0.0
55312.0,STARLINK-5296,PAYLOAD,2024-01-04 20:14:32,14.98330977,0.0002846,69.9988,208.3614,265.8083,94.2751,1.2631e-05,5.8e-07,0.0,0 STARLINK-5296,1 55312U 23010AV  24004.84343405  .00000058  00000-0  12631-4 0  9993,2 55312  69.9988 208.3614 0002846 265.8083  94.2751 14.98330977 54393,6950.19,96.107,574.033,570.077,0.0
55312.0,STARLINK-5296,PAYLOAD,2024-01-04 21:50:40,14.98331503,0.0002836,69.9988,208.1932,265.7688,94.3147,1.9053e-05,1.34e-06,0.0,0 STARLINK-5296,1 55312U 23010AV  24004.91019350  .00000134  00000-0  19053-4 0  9990,2 55312  69.9988 208.1932 0002836 265.7688  94.3147 14.98331503 55592,6950.188,96.107,574.024,570.082,0.0
55312.0,STARLINK-5296,PAYLOAD,2024-01-05 13:52:01,14.98329711,0.0002883,69.9987,206.5105,267.0172,93.0657,3.5874e-05,3.35e-06,0.0,0 STARLINK-5296,1 55312U 23010AV  24005.57779382  .00000335  00000-0  35874-4 0  9993,2 55312  69.9987 206.5105 0002883 267.0172  93.0657 14.98329711 55691,6950.194,96.107,574.063,570.055,0.0
55312.0,STARLINK-5296,PAYLOAD,2024-01-05 20:16:33,14.98331248,0.0002836,69.9989,205.8373,267.2034,92.88,5.3886e-05,5.5e-06,0.0,0 STARLINK-5296,1 55312U 23010AV  24005.84483227  .00000550  00000-0  53886-4 0  9995,2 55312  69.9989 205.8373 0002836 267.2034  92.8800 14.98331248 54547,6950.189,96.107,574.025,570.083,0.0
55312.0,STARLINK-5296,PAYLOAD,2024-01-05 21:52:41,14.98330771,0.000284,69.9989,205.669,267.4253,92.6581,4.7359e-05,4.72e-06,0.0,0 STARLINK-5296,1 55312U 23010AV  24005.91159272  .00000472  00000-0  47359-4 0  9994,2 55312  69.9989 205.6690 0002840 267.4253  92.6581 14.98330771 55744,6950.191,96.107,574.029,570.082,0.0
